OBJECT_NAME,OBJECT_ID,EPOCH,MEAN_MOTION,ECCENTRICITY,INCLINATION,RA_OF_ASC_NODE,ARG_OF_PERICENTER,MEAN_ANOMALY,EPHEMERIS_TYPE,CLASSIFICATION_TYPE,NORAD_CAT_ID,ELEMENT_SET_NO,REV_AT_EPOCH,BSTAR,MEAN_MOTION_DOT,MEAN_MOTION_DDOT
STARLINK-30133,2023-079Q,2026-07-19T09:11:46.777056,15.27578537,.00017933,43.0058,82.9169,260.1710,99.8940,0,U,56837,999,17303,.5124945E-5,-.121E-5,0
STARLINK-30123,2023-079R,2026-07-19T11:48:50.989248,15.27577479,.00009912,43.0011,9.5899,265.6559,94.4180,0,U,56838,999,17390,-.20164408E-4,-.817E-5,0
STARLINK-30076,2023-079S,2026-07-18T22:55:14.920320,15.27579348,.00013375,43.0010,85.7114,265.4604,94.6095,0,U,56839,999,17296,.3379492E-4,.668E-5,0
STARLINK-30073,2023-079T,2026-07-19T14:00:01.999872,15.27549300,.00016162,43.0021,267.5163,281.8141,128.5279,0,U,56840,999,576,.16877741E-2,.46431E-3,0
STARLINK-30078,2023-079U,2026-07-19T13:01:48.754560,15.27579038,.00014246,43.0033,34.7260,272.5982,87.4706,0,U,56841,999,17361,.29208629E-4,.542E-5,0
STARLINK-30135,2023-079V,2026-07-18T16:58:57.567072,15.27570635,.00011145,43.0012,87.2134,268.3082,91.7642,0,U,56842,999,17292,.41019413E-4,.867E-5,0
STARLINK-30137,2023-079W,2026-07-19T01:48:45.337536,15.27482285,.00009922,43.0042,84.8180,229.7538,130.3227,0,U,56843,999,17298,.72392844E-3,.19653E-3,0
STARLINK-30136,2023-079X,2026-07-18T23:00:46.768032,15.27574006,.00014626,43.0022,85.6531,258.3185,101.7502,0,U,56844,999,17296,-.4761982E-5,-.393E-5,0
2023-081A,2023-081A,2026-07-19T15:10:34.578624,15.23580580,.00024693,97.3682,270.1468,101.9016,258.2498,0,U,56846,999,17295,.19900022E-3,.469E-4,0
2023-081W,2023-081W,2026-07-19T14:48:29.535264,15.25377137,.00089335,97.2875,263.3065,251.3140,108.7129,0,U,56866,999,17297,.13572606E-3,.3357E-4,0
LONGJIANG 3,2023-082A,2026-07-19T14:27:14.145984,15.37492560,.000458,49.1055,238.1753,337.5811,22.4936,0,U,56874,999,17436,.19508463E-3,.6927E-4,0
STARLINK-6206,2023-083A,2026-07-19T00:33:22.036608,15.27576077,.00016346,43.0050,63.7137,266.1206,93.9458,0,U,56876,999,17171,.32914241E-4,.643E-5,0
STARLINK-6209,2023-083B,2026-07-19T07:23:05.481312,15.27575950,.00012991,43.0027,61.5446,234.2361,125.8370,0,U,56877,999,17176,.5436616E-5,-.113E-5,0
STARLINK-6182,2023-083C,2026-07-19T13:15:52.493760,15.27577145,.00018461,43.0034,60.8060,260.9991,99.0652,0,U,56878,999,17179,.25415507E-4,.437E-5,0
STARLINK-5707,2023-083D,2026-07-19T14:55:34.742496,15.27576228,.00014957,43.0026,60.4615,253.9286,106.1401,0,U,56879,999,17180,.17699436E-4,.225E-5,0
STARLINK-6177,2023-083E,2026-07-18T22:33:18.612000,15.27575835,.00012376,43.0051,63.9508,285.0041,75.0674,0,U,56880,999,17170,.5274062E-5,-.117E-5,0
STARLINK-5853,2023-083F,2026-07-19T15:01:08.488416,15.27582456,.00012785,43.0028,60.4896,269.4203,90.6502,0,U,56881,999,17180,.459379E-4,.1002E-4,0
STARLINK-6175,2023-083G,2026-07-19T07:48:59.619456,15.27575947,.00012528,43.0053,61.6823,264.9980,95.0729,0,U,56882,999,17176,.21324635E-4,.325E-5,0
STARLINK-6171,2023-083H,2026-07-19T15:28:40.598976,15.27575819,.00008676,43.0021,59.7740,263.0939,96.9814,0,U,56883,999,17181,.14747684E-4,.144E-5,0
STARLINK-5515,2023-083J,2026-07-19T15:10:10.407360,15.27575670,.00011579,43.0029,59.6791,260.9204,99.1517,0,U,56884,999,17181,.9498514E-5,-.1E-7,0
STARLINK-5095,2023-083K,2026-07-19T15:34:14.942784,15.27564122,.00009639,43.0048,59.8044,255.8771,104.1973,0,U,56885,999,17181,-.13680925E-4,-.638E-5,0
STARLINK-5496,2023-083L,2026-07-19T07:24:56.552832,15.27576417,.00011205,43.0026,61.5527,251.5529,108.5201,0,U,56886,999,17176,-.9236773E-5,-.516E-5,0
STARLINK-6180,2023-083M,2026-07-19T07:42:56.837952,15.27575550,.00011202,43.0031,65.9134,246.3420,113.7314,0,U,56887,999,17171,.13589878E-4,.112E-5,0
STARLINK-6181,2023-083N,2026-07-19T08:19:44.484960,15.27577492,.00014458,43.0050,65.2523,278.7140,81.3548,0,U,56888,999,17172,.26000662E-4,.453E-5,0
STARLINK-6169,2023-083P,2026-07-19T01:12:01.010880,15.27575038,.00006969,43.0028,63.0441,235.2404,124.8383,0,U,56889,999,17171,.39835909E-4,.834E-5,0
STARLINK-5528,2023-083Q,2026-07-19T07:53:51.676512,15.27577801,.00009064,43.0042,65.1144,242.8922,117.1837,0,U,56890,999,17172,.30949234E-4,.59E-5,0
STARLINK-6213,2023-083R,2026-07-18T23:43:24.450816,15.27577387,.00012457,43.0040,63.4455,271.3040,88.7669,0,U,56891,999,17171,.15860332E-4,.174E-5,0
STARLINK-6219,2023-083S,2026-07-19T15:02:16.371168,15.27583052,.00017659,43.0039,63.9031,263.3039,96.7612,0,U,56892,999,17176,-.22665276E-4,-.886E-5,0
STARLINK-6216,2023-083T,2026-07-19T15:30:31.561632,15.27574247,.00011075,43.0034,59.7833,258.4797,101.5931,0,U,56893,999,17193,-.998256E-6,-.289E-5,0
STARLINK-6144,2023-083U,2026-07-19T08:03:06.876864,15.27563217,.00012351,43.0037,65.1631,258.8205,101.2508,0,U,56894,999,17184,.8564578E-4,.2094E-4,0
