STARLINK-30133          
1 56837U 23079Q   26200.38318029 -.00000121  00000+0  51249-5 0  9994
2 56837  43.0058  82.9169 0001793 260.1710  99.8940 15.27578537173036
STARLINK-30123          
1 56838U 23079R   26200.49225682 -.00000817  00000+0 -20164-4 0  9993
2 56838  43.0011   9.5899 0000991 265.6559  94.4180 15.27577479173908
STARLINK-30076          
1 56839U 23079S   26199.95503380  .00000668  00000+0  33795-4 0  9992
2 56839  43.0010  85.7114 0001337 265.4604  94.6095 15.27579348172967
STARLINK-30073          
1 56840U 23079T   26200.58335648  .00046431  00000+0  16878-2 0  9995
2 56840  43.0021 267.5163 0001616 281.8141 128.5279 15.27549300  5762
STARLINK-30078          
1 56841U 23079U   26200.54292540  .00000542  00000+0  29209-4 0  9992
2 56841  43.0033  34.7260 0001424 272.5982  87.4706 15.27579038173614
STARLINK-30135          
1 56842U 23079V   26199.70761073  .00000867  00000+0  41019-4 0  9993
2 56842  43.0012  87.2134 0001114 268.3082  91.7642 15.27570635172929
STARLINK-30137          
1 56843U 23079W   26200.07552474  .00019653  00000+0  72393-3 0  9991
2 56843  43.0042  84.8180 0000992 229.7538 130.3227 15.27482285172985
STARLINK-30136          
1 56844U 23079X   26199.95887463 -.00000393  00000+0 -47620-5 0  9995
2 56844  43.0022  85.6531 0001462 258.3185 101.7502 15.27574006172961
2023-081A               
1 56846U 23081A   26200.63234466  .00004690  00000+0  19900-3 0  9997
2 56846  97.3682 270.1468 0002469 101.9016 258.2498 15.23580580172952
2023-081W               
1 56866U 23081W   26200.61700851  .00003357  00000+0  13573-3 0  9992
2 56866  97.2875 263.3065 0008933 251.3140 108.7129 15.25377137172970
LONGJIANG 3             
1 56874U 23082A   26200.60224706  .00006927  00000+0  19508-3 0  9991
2 56874  49.1055 238.1753 0004580 337.5811  22.4936 15.37492560174369
STARLINK-6206           
1 56876U 23083A   26200.02317172  .00000643  00000+0  32914-4 0  9996
2 56876  43.0050  63.7137 0001634 266.1206  93.9458 15.27576077171712
STARLINK-6209           
1 56877U 23083B   26200.30770233 -.00000113  00000+0  54366-5 0  9998
2 56877  43.0027  61.5446 0001299 234.2361 125.8370 15.27575950171763
STARLINK-6182           
1 56878U 23083C   26200.55269090  .00000437  00000+0  25416-4 0  9991
2 56878  43.0034  60.8060 0001846 260.9991  99.0652 15.27577145171795
STARLINK-5707           
1 56879U 23083D   26200.62192989  .00000225  00000+0  17699-4 0  9991
2 56879  43.0026  60.4615 0001495 253.9286 106.1401 15.27576228171803
STARLINK-6177           
1 56880U 23083E   26199.93979875 -.00000117  00000+0  52741-5 0  9990
2 56880  43.0051  63.9508 0001237 285.0041  75.0674 15.27575835171709
STARLINK-5853           
1 56881U 23083F   26200.62579269  .00001002  00000+0  45938-4 0  9995
2 56881  43.0028  60.4896 0001278 269.4203  90.6502 15.27582456171808
STARLINK-6175           
1 56882U 23083G   26200.32569004  .00000325  00000+0  21325-4 0  9990
2 56882  43.0053  61.6823 0001252 264.9980  95.0729 15.27575947171766
STARLINK-6171           
1 56883U 23083H   26200.64491434  .00000144  00000+0  14748-4 0  9997
2 56883  43.0021  59.7740 0000867 263.0939  96.9814 15.27575819171812
STARLINK-5515           
1 56884U 23083J   26200.63206490 -.00000001  00000+0  94985-5 0  9998
2 56884  43.0029  59.6791 0001157 260.9204  99.1517 15.27575670171810
STARLINK-5095           
1 56885U 23083K   26200.64878406 -.00000638  00000+0 -13681-4 0  9992
2 56885  43.0048  59.8044 0000963 255.8771 104.1973 15.27564122171814
STARLINK-5496           
1 56886U 23083L   26200.30898788 -.00000516  00000+0 -92368-5 0  9996
2 56886  43.0026  61.5527 0001120 251.5529 108.5201 15.27576417171763
STARLINK-6180           
1 56887U 23083M   26200.32149118  .00000112  00000+0  13590-4 0  9994
2 56887  43.0031  65.9134 0001120 246.3420 113.7314 15.27575550171719
STARLINK-6181           
1 56888U 23083N   26200.34704265  .00000453  00000+0  26001-4 0  9996
2 56888  43.0050  65.2523 0001445 278.7140  81.3548 15.27577492171721
STARLINK-6169           
1 56889U 23083P   26200.05001170  .00000834  00000+0  39836-4 0  9993
2 56889  43.0028  63.0441 0000696 235.2404 124.8383 15.27575038171713
STARLINK-5528           
1 56890U 23083Q   26200.32907033  .00000590  00000+0  30949-4 0  9993
2 56890  43.0042  65.1144 0000906 242.8922 117.1837 15.27577801171727
STARLINK-6213           
1 56891U 23083R   26199.98847744  .00000174  00000+0  15860-4 0  9998
2 56891  43.0040  63.4455 0001245 271.3040  88.7669 15.27577387171711
STARLINK-6219           
1 56892U 23083S   26200.62657837 -.00000886  00000+0 -22665-4 0  9998
2 56892  43.0039  63.9031 0001765 263.3039  96.7612 15.27583052171769
STARLINK-6216           
1 56893U 23083T   26200.64619863 -.00000289  00000+0 -99826-6 0  9990
2 56893  43.0034  59.7833 0001107 258.4797 101.5931 15.27574247171938
STARLINK-6144           
1 56894U 23083U   26200.33549626  .00002094  00000+0  85646-4 0  9993
2 56894  43.0037  65.1631 0001235 258.8205 101.2508 15.27563217171841
